{
  "type": "FeatureCollection",
  "features": [
    {
      "type": "Feature",
      "properties": {
        "norad_id": 66608,
        "name": "STARLINK-36036",
        "group": "last-30-days",
        "lat": 29.61205738619286,
        "lon": -116.56885181936467,
        "alt_km": 408.263057191004,
        "timestamp": "2025-12-10T11:33:52.172812+00:00",
        "meta_object_name": "STARLINK-36036",
        "meta_object_id": "2025-270W",
        "meta_epoch": "2025-12-10T04:00:01.998720",
        "meta_mean_motion": 15.52907679,
        "meta_eccentricity": 0.0001516,
        "meta_inclination": 42.9997,
        "meta_ra_of_asc_node": 207.6951,
        "meta_arg_of_pericenter": 270.8449,
        "meta_mean_anomaly": 172.3709,
        "meta_ephemeris_type": 0,
        "meta_classification_type": "U",
        "meta_norad_cat_id": 66608,
        "meta_element_set_no": 999,
        "meta_rev_at_epoch": 382,
        "meta_bstar": -0.033429,
        "meta_mean_motion_dot": -0.01882067,
        "meta_mean_motion_ddot": 0,
        "tle_line1": "1 66608U 25270W   25344.16668980 -.01882067  00000+0 -33429-1 0  9999",
        "tle_line2": "2 66608  42.9997 207.6951 0001516 270.8449 172.3709 15.52907679  3828"
      },
      "geometry": {
        "type": "Point",
        "coordinates": [
          -116.56885181936467,
          29.61205738619286
        ]
      }
    },
    {
      "type": "Feature",
      "properties": {
        "norad_id": 66609,
        "name": "STARLINK-36034",
        "group": "last-30-days",
        "lat": 30.634384990983598,
        "lon": -114.698673309512,
        "alt_km": 408.24630553933093,
        "timestamp": "2025-12-10T11:33:52.172824+00:00",
        "meta_object_name": "STARLINK-36034",
        "meta_object_id": "2025-270X",
        "meta_epoch": "2025-12-10T04:00:01.998720",
        "meta_mean_motion": 15.5290898,
        "meta_eccentricity": 0.0001638,
        "meta_inclination": 42.9997,
        "meta_ra_of_asc_node": 207.6907,
        "meta_arg_of_pericenter": 269.7784,
        "meta_mean_anomaly": 175.359,
        "meta_ephemeris_type": 0,
        "meta_classification_type": "U",
        "meta_norad_cat_id": 66609,
        "meta_element_set_no": 999,
        "meta_rev_at_epoch": 382,
        "meta_bstar": -0.03382,
        "meta_mean_motion_dot": -0.01936012,
        "meta_mean_motion_ddot": 0,
        "tle_line1": "1 66609U 25270X   25344.16668980 -.01936012  00000+0 -33820-1 0  9995",
        "tle_line2": "2 66609  42.9997 207.6907 0001638 269.7784 175.3590 15.52908980  3821"
      },
      "geometry": {
        "type": "Point",
        "coordinates": [
          -114.698673309512,
          30.634384990983598
        ]
      }
    },
    {
      "type": "Feature",
      "properties": {
        "norad_id": 66610,
        "name": "STARLINK-35680",
        "group": "last-30-days",
        "lat": 31.628764537161732,
        "lon": -112.79067648527015,
        "alt_km": 408.1029436638628,
        "timestamp": "2025-12-10T11:33:52.172836+00:00",
        "meta_object_name": "STARLINK-35680",
        "meta_object_id": "2025-270Y",
        "meta_epoch": "2025-12-10T04:00:01.998720",
        "meta_mean_motion": 15.52901979,
        "meta_eccentricity": 0.0001656,
        "meta_inclination": 42.9997,
        "meta_ra_of_asc_node": 207.6856,
        "meta_arg_of_pericenter": 271.1429,
        "meta_mean_anomaly": 175.9126,
        "meta_ephemeris_type": 0,
        "meta_classification_type": "U",
        "meta_norad_cat_id": 66610,
        "meta_element_set_no": 999,
        "meta_rev_at_epoch": 409,
        "meta_bstar": -0.033672,
        "meta_mean_motion_dot": -0.01893896,
        "meta_mean_motion_ddot": 0,
        "tle_line1": "1 66610U 25270Y   25344.16668980 -.01893896  00000+0 -33672-1 0  9994",
        "tle_line2": "2 66610  42.9997 207.6856 0001656 271.1429 175.9126 15.52901979  4091"
      },
      "geometry": {
        "type": "Point",
        "coordinates": [
          -112.79067648527015,
          31.628764537161732
        ]
      }
    },
    {
      "type": "Feature",
      "properties": {
        "norad_id": 66611,
        "name": "STARLINK-35583",
        "group": "last-30-days",
        "lat": 32.59484417562488,
        "lon": -110.83984741444857,
        "alt_km": 407.9940881009261,
        "timestamp": "2025-12-10T11:33:52.172846+00:00",
        "meta_object_name": "STARLINK-35583",
        "meta_object_id": "2025-270Z",
        "meta_epoch": "2025-12-10T04:00:01.998720",
        "meta_mean_motion": 15.52905635,
        "meta_eccentricity": 0.0001659,
        "meta_inclination": 42.9996,
        "meta_ra_of_asc_node": 207.6807,
        "meta_arg_of_pericenter": 271.4058,
        "meta_mean_anomaly": 177.5673,
        "meta_ephemeris_type": 0,
        "meta_classification_type": "U",
        "meta_norad_cat_id": 66611,
        "meta_element_set_no": 999,
        "meta_rev_at_epoch": 409,
        "meta_bstar": -0.033937,
        "meta_mean_motion_dot": -0.01941832,
        "meta_mean_motion_ddot": 0,
        "tle_line1": "1 66611U 25270Z   25344.16668980 -.01941832  00000+0 -33937-1 0  9993",
        "tle_line2": "2 66611  42.9996 207.6807 0001659 271.4058 177.5673 15.52905635  4099"
      },
      "geometry": {
        "type": "Point",
        "coordinates": [
          -110.83984741444857,
          32.59484417562488
        ]
      }
    },
    {
      "type": "Feature",
      "properties": {
        "norad_id": 66612,
        "name": "STARLINK-36039",
        "group": "last-30-days",
        "lat": 33.53288213046367,
        "lon": -108.84169754490203,
        "alt_km": 407.8781180415772,
        "timestamp": "2025-12-10T11:33:52.172857+00:00",
        "meta_object_name": "STARLINK-36039",
        "meta_object_id": "2025-270AA",
        "meta_epoch": "2025-12-10T04:00:01.998720",
        "meta_mean_motion": 15.52902369,
        "meta_eccentricity": 0.0001696,
        "meta_inclination": 42.9997,
        "meta_ra_of_asc_node": 207.6752,
        "meta_arg_of_pericenter": 270.5263,
        "meta_mean_anomaly": 180.3655,
        "meta_ephemeris_type": 0,
        "meta_classification_type": "U",
        "meta_norad_cat_id": 66612,
        "meta_element_set_no": 999,
        "meta_rev_at_epoch": 398,
        "meta_bstar": -0.033637,
        "meta_mean_motion_dot": -0.01892204,
        "meta_mean_motion_ddot": 0,
        "tle_line1": "1 66612U 25270AA  25344.16668980 -.01892204  00000+0 -33637-1 0  9999",
        "tle_line2": "2 66612  42.9997 207.6752 0001696 270.5263 180.3655 15.52902369  3989"
      },
      "geometry": {
        "type": "Point",
        "coordinates": [
          -108.84169754490203,
          33.53288213046367
        ]
      }
    },
    {
      "type": "Feature",
      "properties": {
        "norad_id": 66613,
        "name": "STARLINK-36037",
        "group": "last-30-days",
        "lat": 34.435658545032815,
        "lon": -106.80462272338113,
        "alt_km": 407.6303471721585,
        "timestamp": "2025-12-10T11:33:52.172867+00:00",
        "meta_object_name": "STARLINK-36037",
        "meta_object_id": "2025-270AB",
        "meta_epoch": "2025-12-10T04:00:01.998720",
        "meta_mean_motion": 15.52901465,
        "meta_eccentricity": 0.0001563,
        "meta_inclination": 42.9997,
        "meta_ra_of_asc_node": 207.6706,
        "meta_arg_of_pericenter": 273.9254,
        "meta_mean_anomaly": 178.8825,
        "meta_ephemeris_type": 0,
        "meta_classification_type": "U",
        "meta_norad_cat_id": 66613,
        "meta_element_set_no": 999,
        "meta_rev_at_epoch": 398,
        "meta_bstar": -0.033564,
        "meta_mean_motion_dot": -0.01888455,
        "meta_mean_motion_ddot": 0,
        "tle_line1": "1 66613U 25270AB  25344.16668980 -.01888455  00000+0 -33564-1 0  9992",
        "tle_line2": "2 66613  42.9997 207.6706 0001563 273.9254 178.8825 15.52901465  3986"
      },
      "geometry": {
        "type": "Point",
        "coordinates": [
          -106.80462272338113,
          34.435658545032815
        ]
      }
    },
    {
      "type": "Feature",
      "properties": {
        "norad_id": 66614,
        "name": "STARLINK-36040",
        "group": "last-30-days",
        "lat": 36.13461217743507,
        "lon": -102.6016012732974,
        "alt_km": 407.42559234025066,
        "timestamp": "2025-12-10T11:33:52.172879+00:00",
        "meta_object_name": "STARLINK-36040",
        "meta_object_id": "2025-270AC",
        "meta_epoch": "2025-12-10T04:00:01.998720",
        "meta_mean_motion": 15.52905881,
        "meta_eccentricity": 0.0001529,
        "meta_inclination": 42.9998,
        "meta_ra_of_asc_node": 207.6607,
        "meta_arg_of_pericenter": 272.1097,
        "meta_mean_anomaly": 184.5301,
        "meta_ephemeris_type": 0,
        "meta_classification_type": "U",
        "meta_norad_cat_id": 66614,
        "meta_element_set_no": 999,
        "meta_rev_at_epoch": 382,
        "meta_bstar": -0.033763,
        "meta_mean_motion_dot": -0.01932821,
        "meta_mean_motion_ddot": 0,
        "tle_line1": "1 66614U 25270AC  25344.16668980 -.01932821  00000+0 -33763-1 0  9991",
        "tle_line2": "2 66614  42.9998 207.6607 0001529 272.1097 184.5301 15.52905881  3828"
      },
      "geometry": {
        "type": "Point",
        "coordinates": [
          -102.6016012732974,
          36.13461217743507
        ]
      }
    }
  ]
}